{"type": "FeatureCollection", "features": [ {"type": "Feature", "properties": {"norad_id": 34611, "name": "COSMOS 2251 DEB", "group": "cosmos-2251-debris", "lat": -17.061270497201342, "lon": -98.34975463045402, "alt_km": 664.9807753315163, "timestamp": "2025-12-25T07:41:10.118089+00:00", "meta": {"OBJECT_NAME": "COSMOS 2251 DEB", "OBJECT_ID": "1993-036WG", "EPOCH": "2025-12-24T16:39:10.717056", "MEAN_MOTION": 14.69705463, "ECCENTRICITY": 0.0021547, "INCLINATION": 74.0532, "RA_OF_ASC_NODE": 77.828, "ARG_OF_PERICENTER": 114.8574, "MEAN_ANOMALY": 9.7647, "EPHEMERIS_TYPE": 0, "CLASSIFICATION_TYPE": "U", "NORAD_CAT_ID": 34611, "ELEMENT_SET_NO": 999, "REV_AT_EPOCH": 88566, "BSTAR": 0.0014225378, "MEAN_MOTION_DOT": 8.484e-05, "MEAN_MOTION_DDOT": 0}, "tle": {"line1": "1 34611U 93036WG  25358.69387404  .00008484  00000+0  14225-2 0  9999", "line2": "2 34611  74.0532  77.8280 0021547 114.8574   9.7647 14.69705463885660"}}, "geometry": {"type": "Point", "coordinates": [-98.34975463045402, -17.061270497201342]}}, {"type": "Feature", "properties": {"norad_id": 34613, "name": "COSMOS 2251 DEB", "group": "cosmos-2251-debris", "lat": 44.37580679901681, "lon": 59.36268228991877, "alt_km": 746.533593473996, "timestamp": "2025-12-25T07:41:10.118099+00:00", "meta": {"OBJECT_NAME": "COSMOS 2251 DEB", "OBJECT_ID": "1993-036WJ", "EPOCH": "2025-12-24T17:45:16.187616", "MEAN_MOTION": 14.26502206, "ECCENTRICITY": 0.01107264, "INCLINATION": 73.9629, "RA_OF_ASC_NODE": 256.7621, "ARG_OF_PERICENTER": 85.5038, "MEAN_ANOMALY": 306.9262, "EPHEMERIS_TYPE": 0, "CLASSIFICATION_TYPE": "U", "NORAD_CAT_ID": 34613, "ELEMENT_SET_NO": 999, "REV_AT_EPOCH": 86634, "BSTAR": 0.0011571571, "MEAN_MOTION_DOT": 2.951e-05, "MEAN_MOTION_DDOT": 0}, "tle": {"line1": "1 34613U 93036WJ  25358.73977069  .00002951  00000+0  11572-2 0  9993", "line2": "2 34613  73.9629 256.7621 0110726  85.5038 306.9262 14.26502206866343"}}, "geometry": {"type": "Point", "coordinates": [59.36268228991877, 44.37580679901681]}}, {"type": "Feature", "properties": {"norad_id": 34614, "name": "COSMOS 2251 DEB", "group": "cosmos-2251-debris", "lat": 10.115477994267081, "lon": -35.79998162954127, "alt_km": 755.3574813740179, "timestamp": "2025-12-25T07:41:10.118109+00:00", "meta": {"OBJECT_NAME": "COSMOS 2251 DEB", "OBJECT_ID": "1993-036WK", "EPOCH": "2025-12-24T21:37:08.839200", "MEAN_MOTION": 14.17833523, "ECCENTRICITY": 0.01962314, "INCLINATION": 73.8822, "RA_OF_ASC_NODE": 321.9978, "ARG_OF_PERICENTER": 314.2153, "MEAN_ANOMALY": 74.3764, "EPHEMERIS_TYPE": 0, "CLASSIFICATION_TYPE": "U", "NORAD_CAT_ID": 34614, "ELEMENT_SET_NO": 999, "REV_AT_EPOCH": 84939, "BSTAR": 0.006748583, "MEAN_MOTION_DOT": 0.0001667, "MEAN_MOTION_DDOT": 0}, "tle": {"line1": "1 34614U 93036WK  25358.90079675  .00016670  00000+0  67486-2 0  9997", "line2": "2 34614  73.8822 321.9978 0196231 314.2153  74.3764 14.17833523849391"}}, "geometry": {"type": "Point", "coordinates": [-35.79998162954127, 10.115477994267081]}}, {"type": "Feature", "properties": {"norad_id": 34615, "name": "COSMOS 2251 DEB", "group": "cosmos-2251-debris", "lat": 0.4488537237822507, "lon": 93.836661453935, "alt_km": 768.5549569397217, "timestamp": "2025-12-25T07:41:10.118119+00:00", "meta": {"OBJECT_NAME": "COSMOS 2251 DEB", "OBJECT_ID": "1993-036WL", "EPOCH": "2025-12-23T05:51:02.282688", "MEAN_MOTION": 13.52205597, "ECCENTRICITY": 0.04004644, "INCLINATION": 74.0046, "RA_OF_ASC_NODE": 277.2944, "ARG_OF_PERICENTER": 182.2976, "MEAN_ANOMALY": 332.6284, "EPHEMERIS_TYPE": 0, "CLASSIFICATION_TYPE": "U", "NORAD_CAT_ID": 34615, "ELEMENT_SET_NO": 999, "REV_AT_EPOCH": 82957, "BSTAR": 0.00017989399, "MEAN_MOTION_DOT": 1.76e-06, "MEAN_MOTION_DDOT": 0}, "tle": {"line1": "1 34615U 93036WL  25357.24377642  .00000176  00000+0  17989-3 0  9997", "line2": "2 34615  74.0046 277.2944 0400464 182.2976 332.6284 13.52205597829578"}}, "geometry": {"type": "Point", "coordinates": [93.836661453935, 0.4488537237822507]}}, {"type": "Feature", "properties": {"norad_id": 34619, "name": "COSMOS 2251 DEB", "group": "cosmos-2251-debris", "lat": 42.58319550498741, "lon": -19.48148918348697, "alt_km": 719.126489665473, "timestamp": "2025-12-25T07:41:10.118130+00:00", "meta": {"OBJECT_NAME": "COSMOS 2251 DEB", "OBJECT_ID": "1993-036WQ", "EPOCH": "2025-12-24T11:23:28.612608", "MEAN_MOTION": 14.64673165, "ECCENTRICITY": 0.00947394, "INCLINATION": 74.0428, "RA_OF_ASC_NODE": 177.3884, "ARG_OF_PERICENTER": 269.562, "MEAN_ANOMALY": 89.4692, "EPHEMERIS_TYPE": 0, "CLASSIFICATION_TYPE": "U", "NORAD_CAT_ID": 34619, "ELEMENT_SET_NO": 999, "REV_AT_EPOCH": 89470, "BSTAR": 0.00022155238, "MEAN_MOTION_DOT": 1.224e-05, "MEAN_MOTION_DDOT": 0}, "tle": {"line1": "1 34619U 93036WQ  25358.47463672  .00001224  00000+0  22155-3 0  9992", "line2": "2 34619  74.0428 177.3884 0094739 269.5620  89.4692 14.64673165894709"}}, "geometry": {"type": "Point", "coordinates": [-19.48148918348697, 42.58319550498741]}}, {"type": "Feature", "properties": {"norad_id": 34620, "name": "COSMOS 2251 DEB", "group": "cosmos-2251-debris", "lat": 32.76300468306987, "lon": -153.4357497111994, "alt_km": 780.2007515511586, "timestamp": "2025-12-25T07:41:10.118139+00:00", "meta": {"OBJECT_NAME": "COSMOS 2251 DEB", "OBJECT_ID": "1993-036WR", "EPOCH": "2025-12-24T00:02:58.639776", "MEAN_MOTION": 14.49266067, "ECCENTRICITY": 0.00795809, "INCLINATION": 74.0508, "RA_OF_ASC_NODE": 198.4288, "ARG_OF_PERICENTER": 232.2834, "MEAN_ANOMALY": 127.1095, "EPHEMERIS_TYPE": 0, "CLASSIFICATION_TYPE": "U", "NORAD_CAT_ID": 34620, "ELEMENT_SET_NO": 999, "REV_AT_EPOCH": 86990, "BSTAR": 0.0021829914, "MEAN_MOTION_DOT": 8.649e-05, "MEAN_MOTION_DDOT": 0}, "tle": {"line1": "1 34620U 93036WR  25358.00206759  .00008649  00000+0  21830-2 0  9990", "line2": "2 34620  74.0508 198.4288 0079580 232.2834 127.1095 14.49266067869906"}}, "geometry": {"type": "Point", "coordinates": [-153.4357497111994, 32.76300468306987]}}, {"type": "Feature", "properties": {"norad_id": 34622, "name": "COSMOS 2251 DEB", "group": "cosmos-2251-debris", "lat": -59.07419684929277, "lon": 132.96772627843475, "alt_km": 863.1804992187162, "timestamp": "2025-12-25T07:41:10.118150+00:00", "meta": {"OBJECT_NAME": "COSMOS 2251 DEB", "OBJECT_ID": "1993-036WT", "EPOCH": "2025-12-24T20:40:50.649312", "MEAN_MOTION": 14.22091723, "ECCENTRICITY": 0.01049596, "INCLINATION": 74.0422, "RA_OF_ASC_NODE": 285.2613, "ARG_OF_PERICENTER": 4.8683, "MEAN_ANOMALY": 52.5969, "EPHEMERIS_TYPE": 0, "CLASSIFICATION_TYPE": "U", "NORAD_CAT_ID": 34622, "ELEMENT_SET_NO": 999, "REV_AT_EPOCH": 86632, "BSTAR": 0.00082163825, "MEAN_MOTION_DOT": 1.899e-05, "MEAN_MOTION_DDOT": 0}, "tle": {"line1": "1 34622U 93036WT  25358.86169733  .00001899  00000+0  82164-3 0  9994", "line2": "2 34622  74.0422 285.2613 0104959   4.8683  52.5969 14.22091723866324"}}, "geometry": {"type": "Point", "coordinates": [132.96772627843475, -59.07419684929277]}}, {"type": "Feature", "properties": {"norad_id": 34626, "name": "COSMOS 2251 DEB", "group": "cosmos-2251-debris", "lat": -0.4877541796697261, "lon": 119.57125213371869, "alt_km": 673.7805890893014, "timestamp": "2025-12-25T07:41:10.118160+00:00", "meta": {"OBJECT_NAME": "COSMOS 2251 DEB", "OBJECT_ID": "1993-036WX", "EPOCH": "2025-12-24T21:20:21.564672", "MEAN_MOTION": 14.7234363, "ECCENTRICITY": 0.00271767, "INCLINATION": 74.0487, "RA_OF_ASC_NODE": 300.2697, "ARG_OF_PERICENTER": 25.0906, "MEAN_ANOMALY": 31.0087, "EPHEMERIS_TYPE": 0, "CLASSIFICATION_TYPE": "U", "NORAD_CAT_ID": 34626, "ELEMENT_SET_NO": 999, "REV_AT_EPOCH": 89323, "BSTAR": 0.0011610362, "MEAN_MOTION_DOT": 7.364e-05, "MEAN_MOTION_DDOT": 0}, "tle": {"line1": "1 34626U 93036WX  25358.88913848  .00007364  00000+0  11610-2 0  9994", "line2": "2 34626  74.0487 300.2697 0027176  25.0906  31.0087 14.72343630893232"}}, "geometry": {"type": "Point", "coordinates": [119.57125213371869, -0.4877541796697261]}}, {"type": "Feature", "properties": {"norad_id": 34634, "name": "COSMOS 2251 DEB", "group": "cosmos-2251-debris", "lat": -42.46312428048064, "lon": -4.016717062129494, "alt_km": 742.3180827212072, "timestamp": "2025-12-25T07:41:10.118170+00:00", "meta": {"OBJECT_NAME": "COSMOS 2251 DEB", "OBJECT_ID": "1993-036XF", "EPOCH": "2025-12-24T19:29:14.222688", "MEAN_MOTION": 14.55689208, "ECCENTRICITY": 0.00436741, "INCLINATION": 74.0513, "RA_OF_ASC_NODE": 12.1162, "ARG_OF_PERICENTER": 115.808, "MEAN_ANOMALY": 57.2853, "EPHEMERIS_TYPE": 0, "CLASSIFICATION_TYPE": "U", "NORAD_CAT_ID": 34634, "ELEMENT_SET_NO": 999, "REV_AT_EPOCH": 88957, "BSTAR": 0.00028015672, "MEAN_MOTION_DOT": 1.211e-05, "MEAN_MOTION_DDOT": 0}, "tle": {"line1": "1 34634U 93036XF  25358.81197017  .00001211  00000+0  28016-3 0  9992", "line2": "2 34634  74.0513  12.1162 0043674 115.8080  57.2853 14.55689208889577"}}, "geometry": {"type": "Point", "coordinates": [-4.016717062129494, -42.46312428048064]}}, {"type": "Feature", "properties": {"norad_id": 34635, "name": "COSMOS 2251 DEB", "group": "cosmos-2251-debris", "lat": 28.933538947565317, "lon": 55.500505165639005, "alt_km": 661.126898469055, "timestamp": "2025-12-25T07:41:10.118180+00:00", "meta": {"OBJECT_NAME": "COSMOS 2251 DEB", "OBJECT_ID": "1993-036XG", "EPOCH": "2025-12-24T20:54:56.990880", "MEAN_MOTION": 14.68409074, "ECCENTRICITY": 0.00276483, "INCLINATION": 74.045, "RA_OF_ASC_NODE": 47.2682, "ARG_OF_PERICENTER": 111.6675, "MEAN_ANOMALY": 67.6483, "EPHEMERIS_TYPE": 0, "CLASSIFICATION_TYPE": "U", "NORAD_CAT_ID": 34635, "ELEMENT_SET_NO": 999, "REV_AT_EPOCH": 73397, "BSTAR": 0.0010285714, "MEAN_MOTION_DOT": 5.958e-05, "MEAN_MOTION_DDOT": 0}, "tle": {"line1": "1 34635U 93036XG  25358.87149295  .00005958  00000+0  10286-2 0  9995", "line2": "2 34635  74.0450  47.2682 0027648 111.6675  67.6483 14.68409074733972"}}, "geometry": {"type": "Point", "coordinates": [55.500505165639005, 28.933538947565317]}}]}